{"type":"FeatureCollection","features":[{"type":"Feature","properties":{"name":"Республика Карелия"},"bbox":[29.306154,60.6813889,37.9466381,66.6673243],"geometry":{"type":"Polygon","coordinates":[[[29.306,61.329],[29.367,61.278],[29.424,61.256],[29.551,61.241],[29.564,61.184],[29.583,61.178],[29.812,61.162],[29.855,61.172],[30.943,61.026],[31.968,60.831],[32.913,60.681],[32.92,60.711],[33.158,60.74],[33.173,60.787],[33.267,60.795],[33.18,60.821],[33.209,60.828],[33.198,60.834],[33.206,60.855],[33.236,60.845],[33.26,60.869],[33.251,60.874],[33.467,60.928],[33.466,60.951],[33.422,60.983],[33.449,61.003],[33.542,61.004],[33.545,60.984],[33.608,60.959],[33.785,60.937],[33.813,60.947],[33.879,61.041],[33.92,61.073],[33.912,61.095],[33.844,61.096],[33.738,61.131],[33.725,61.113],[33.685,61.114],[33.661,61.096],[33.662,61.075],[33.591,61.064],[33.548,61.08],[33.524,61.11],[33.49,61.115],[33.45,61.155],[33.576,61.219],[33.67,61.215],[33.669,61.233],[34.238,61.244],[34.337,61.22],[34.409,61.148],[34.444,61.144],[34.491,61.2],[34.465,61.208],[34.474,61.234],[34.514,61.245],[34.546,61.276],[34.656,61.275],[34.749,61.297],[34.736,61.313],[34.769,61.312],[34.794,61.289],[35.078,61.263],[35.087,61.242],[35.106,61.256],[35.172,61.239],[35.201,61.259],[35.298,61.252],[35.354,61.286],[35.394,61.282],[35.36,61.226],[35.352,61.176],[35.403,61.176],[35.391,61.165],[35.402,61.139],[35.525,61.181],[35.603,61.179],[36.499,61.416],[36.517,61.427],[36.495,61.441],[36.577,61.515],[36.584,61.539],[36.696,61.56],[36.874,61.539],[36.884,61.563],[37.03,61.614],[37.032,61.599],[37.171,61.557],[37.292,61.551],[37.305,61.51],[37.467,61.511],[37.523,61.53],[37.706,61.54],[37.817,61.53],[37.772,61.548],[37.76,61.615],[37.785,61.631],[37.776,61.644],[37.8,61.681],[37.841,61.685],[37.88,61.714],[37.884,61.732],[37.859,61.756],[37.901,61.815],[37.895,61.84],[37.928,61.886],[37.924,61.926],[37.947,61.958],[37.944,61.973],[37.837,61.983],[37.812,62.007],[37.824,62.038],[37.802,62.036],[37.772,62.119],[37.755,62.12],[37.773,62.138],[37.737,62.166],[37.758,62.173],[37.716,62.19],[37.702,62.213],[37.588,62.22],[37.471,62.196],[37.446,62.204],[37.479,62.236],[37.454,62.241],[37.463,62.258],[37.519,62.286],[37.562,62.344],[37.599,62.358],[37.586,62.4],[37.613,62.428],[37.601,62.439],[37.613,62.463],[37.637,62.478],[37.577,62.501],[37.573,62.548],[37.541,62.591],[37.555,62.596],[37.55,62.623],[37.519,62.649],[37.369,62.678],[37.252,62.677],[37.181,62.653],[37.071,62.649],[36.99,62.677],[36.822,62.696],[36.528,62.793],[36.488,62.839],[36.258,63.012],[36.247,63.051],[36.313,63.113],[36.307,63.151],[36.405,63.195],[36.391,63.226],[36.246,63.212],[36.262,63.28],[36.192,63.426],[36.03,63.465],[35.893,63.576],[35.935,63.605],[36.455,63.626],[36.59,63.748],[36.582,63.791],[36.559,63.795],[36.548,63.841],[36.563,63.867],[36.553,63.953],[36.848,64.232],[35.992,64.628],[35.764,64.717],[35.561,64.957],[35.467,65.0],[35.407,65.158],[35.27,65.336],[35.328,65.982],[34.843,66.153],[34.0,66.41],[33.507,66.512],[33.233,66.549],[32.866,66.583],[32.587,66.582],[32.557,66.576],[32.548,66.479],[32.36,66.475],[32.343,66.345],[31.937,66.351],[31.83,66.371],[31.792,66.495],[31.621,66.502],[31.576,66.654],[31.086,66.667],[30.16,66.653],[30.17,66.661],[29.323,66.662],[29.358,66.641],[29.386,66.607],[29.376,66.604],[29.417,66.592],[29.411,66.583],[29.52,66.496],[29.707,66.274],[29.697,66.268],[29.923,66.127],[29.993,66.022],[29.997,65.979],[30.024,65.967],[30.068,65.895],[30.134,65.7],[30.138,65.669],[30.017,65.696],[29.722,65.637],[29.864,65.56],[29.733,65.472],[29.727,65.4],[29.747,65.347],[29.602,65.26],[29.634,65.232],[29.764,65.229],[29.886,65.206],[29.894,65.193],[29.819,65.144],[29.897,65.105],[29.733,65.091],[29.627,65.061],[29.599,64.995],[29.619,64.96],[29.615,64.917],[29.645,64.866],[29.7,64.837],[29.688,64.819],[29.74,64.79],[30.043,64.793],[30.087,64.774],[30.041,64.741],[30.054,64.713],[30.136,64.649],[30.13,64.635],[29.989,64.588],[29.987,64.534],[30.03,64.501],[30.024,64.483],[30.058,64.451],[30.045,64.402],[30.11,64.365],[30.21,64.35],[30.367,64.3],[30.361,64.281],[30.388,64.269],[30.482,64.262],[30.51,64.222],[30.466,64.204],[30.553,64.132],[30.528,64.049],[30.321,63.91],[30.26,63.822],[29.972,63.757],[30.244,63.607],[30.258,63.584],[30.385,63.545],[30.484,63.467],[30.788,63.405],[30.85,63.369],[30.934,63.355],[30.979,63.308],[31.139,63.265],[31.238,63.219],[31.272,63.108],[31.463,63.024],[31.449,63.006],[31.502,62.996],[31.587,62.909],[31.456,62.797],[31.467,62.784],[31.439,62.785],[31.38,62.69],[31.373,62.65],[31.346,62.644],[31.222,62.499],[31.185,62.494],[31.163,62.446],[30.943,62.333],[30.962,62.328],[30.943,62.306],[30.904,62.311],[30.811,62.271],[30.72,62.209],[30.657,62.209],[30.603,62.142],[30.444,62.033],[30.305,61.964],[30.313,61.945],[30.301,61.935],[30.274,61.934],[30.071,61.818],[30.038,61.765],[29.819,61.655],[29.741,61.576],[29.645,61.52],[29.592,61.496],[29.496,61.492],[29.503,61.461],[29.306,61.329]]]}}]}